! Propagated orbits
format  = 'OEF2.0'       ! file format
rectype = 'ML'           ! record type (1L/ML)
refsys  = ECLM J2000     ! default reference system
END_OF_HEADER
! Orbital elements of object 410777 (computed with least squares fit)
410777
! Equinoctial elements: a, e*sin(LP), e*cos(LP), tan(i/2)*sin(LN), tan(i/2)*cos(LN), mean long.
 EQU   1.1637782490541460E+00  -0.460716631951062   0.175394625880714    0.004463589566596    0.026941545573982  25.1665935574056
 MJD     57387.000000000 TDT
 MAG  22.134  0.150
! Non-grav parameters: model used, actual number in use, dimension
 LSP   0  0    6
! RMS    2.69654E-09   3.20549E-08   6.09412E-08   6.04376E-09   4.54957E-08   5.94789E-06
! EIG   1.51396E-10   3.78844E-09   1.52443E-08   4.30897E-08   4.59929E-08   1.15813E-07
! WEA   0.01509  -0.22874   0.41623  -0.00599   0.04176   0.87888
 COV   7.271330054146647E-18 -7.291027857492720E-17  1.524728944511316E-16
 COV  -1.600195817737339E-18 -2.197048518593838E-17  8.025500608764987E-15
 COV   1.027515877374380E-15 -1.609502059808187E-15  4.084351139004392E-17
 COV  -2.368366685485830E-16 -1.402809360109344E-13  3.713835581812114E-15
 COV   3.057786443006505E-17  5.962784061326149E-17  2.388750313149711E-13
 COV   3.652699032402838E-17  1.183991315562121E-16 -5.766680286079454E-15
 COV   2.069856346717720E-15  2.580087882195612E-14  3.537735650083385E-11
 NOR   4.344479901294614E+19  2.257856593809457E+18 -1.255353428495473E+18
 NOR  -7.945709782320000E+17  7.148123253707213E+17  6.922952029669787E+15
 NOR   1.240826868470680E+17 -6.259947296458453E+16 -5.464070976661717E+16
 NOR   3.853680475477283E+16  3.654902286567326E+14  3.783920558980770E+16
 NOR   1.629655096149738E+16 -1.999573180895679E+16 -2.017004838721694E+14
 NOR   8.021477468667429E+16 -1.824728573128882E+16 -1.200680495782099E+14
 NOR   1.268571978624218E+16  1.134399165611833E+14  1.166653632111522E+12
